[{"OBJECT_NAME":"STARLINK-3628","OBJECT_ID":"2022-017R","EPOCH":"2026-03-09T21:59:21.071904","MEAN_MOTION":15.08833646,"ECCENTRICITY":0.00015326,"INCLINATION":53.2201,"RA_OF_ASC_NODE":338.1594,"ARG_OF_PERICENTER":112.9862,"MEAN_ANOMALY":247.1292,"EPHEMERIS_TYPE":0,"CLASSIFICATION_TYPE":"U","NORAD_CAT_ID":51783,"ELEMENT_SET_NO":999,"REV_AT_EPOCH":22245,"BSTAR":1.1184792e-5,"MEAN_MOTION_DOT":-1.1e-6,"MEAN_MOTION_DDOT":0},{"OBJECT_NAME":"NOAA 17 DEB","OBJECT_ID":"2002-032DT","EPOCH":"2026-03-08T22:47:54.624192","MEAN_MOTION":15.08678856,"ECCENTRICITY":0.0018728,"INCLINATION":98.77,"RA_OF_ASC_NODE":121.3607,"ARG_OF_PERICENTER":298.7191,"MEAN_ANOMALY":61.2152,"EPHEMERIS_TYPE":0,"CLASSIFICATION_TYPE":"U","NORAD_CAT_ID":49489,"ELEMENT_SET_NO":999,"REV_AT_EPOCH":24229,"BSTAR":0.0068247859,"MEAN_MOTION_DOT":0.00108865,"MEAN_MOTION_DDOT":0}]
